[{"OBJECT_NAME":"GAOFEN-12 05","OBJECT_ID":"2024-186A","EPOCH":"2026-03-10T00:24:03.082176","MEAN_MOTION":14.80867025,"ECCENTRICITY":8.035e-5,"INCLINATION":97.9136,"RA_OF_ASC_NODE":78.47,"ARG_OF_PERICENTER":119.8507,"MEAN_ANOMALY":240.2785,"EPHEMERIS_TYPE":0,"CLASSIFICATION_TYPE":"U","NORAD_CAT_ID":61571,"ELEMENT_SET_NO":999,"REV_AT_EPOCH":7466,"BSTAR":8.8744173e-5,"MEAN_MOTION_DOT":6.33e-6,"MEAN_MOTION_DDOT":0},{"OBJECT_NAME":"KUIPER-00080","OBJECT_ID":"2025-151M","EPOCH":"2026-03-09T22:17:34.050048","MEAN_MOTION":14.79937756,"ECCENTRICITY":8.294e-5,"INCLINATION":51.8982,"RA_OF_ASC_NODE":299.5145,"ARG_OF_PERICENTER":86.1378,"MEAN_ANOMALY":273.9679,"EPHEMERIS_TYPE":0,"CLASSIFICATION_TYPE":"U","NORAD_CAT_ID":64827,"ELEMENT_SET_NO":999,"REV_AT_EPOCH":3534,"BSTAR":0.00028328024,"MEAN_MOTION_DOT":1.939e-5,"MEAN_MOTION_DDOT":0}]
